SL-14 R/B               
1 16792U 86046B   25325.56330242  .00000506  00000+0  55652-4 0  9998
2 16792  82.4823 182.3125 0022023 222.7838 137.1665 14.85454263110358
SL-14 R/B               
1 16882U 86055B   25325.23550987  .00000671  00000+0  74760-4 0  9996
2 16882  82.5219 228.5761 0018367 335.6445 139.3929 14.85499422103266
AJISAI (EGS)            
1 16908U 86061A   25325.55287000 -.00000112  00000+0 -10188-3 0  9995
2 16908  50.0101  65.8637 0011219  12.6360 105.5044 12.44514082454531
COSMOS 1812             
1 17295U 87003A   25325.42003733  .00079378  00000+0  62935-3 0  9992
2 17295  82.4868 315.0134 0006112 119.8647 240.3223 15.70995830127301
SL-14 R/B               
1 17567U 87024B   25325.16457405  .00000495  00000+0  53860-4 0  9999
2 17567  82.5292 194.7203 0016748 259.6769 100.2559 14.85994073 72014
COSMOS 1833             
1 17589U 87027A   25325.05565941 -.00000102  00000+0 -28939-4 0  9995
2 17589  70.9132 194.3608 0021613   2.2958 357.8258 14.13018295994963
SL-16 R/B               
1 17590U 87027B   25325.48571808 -.00000028  00000+0  98553-5 0  9999
2 17590  70.9999 144.5038 0007255 281.5348  78.4961 14.17146938    12
SL-14 R/B               
1 17912U 87038B   25325.57541997  .00000564  00000+0  62764-4 0  9993
2 17912  82.5035  38.6321 0019908 157.9755 202.2322 14.85232378 63188
COSMOS 1844             
1 17973U 87041A   25325.27648765  .00000101  00000+0  77335-4 0  9999
2 17973  70.8995 262.8385 0031149 190.1197 169.9302 14.14527413988251
SL-14 R/B               
1 18153U 87055B   25325.43631663  .00000603  00000+0  66858-4 0  9997
2 18153  82.4985  91.0634 0021031  15.4716 344.7138 14.85488289 53869
COSMOS 1867             
1 18187U 87060A   25325.22494019  .00000017  00000+0  44182-4 0  9994
2 18187  65.0102 250.4508 0013679 268.9248  91.0270 14.31481354  4412
COSMOS 1892             
1 18421U 87088A   25325.25413714  .00635148  20303-3  79678-3 0  9999
2 18421  82.4662  67.9651 0005766 271.3858  88.6763 16.07621225 87878
