CCSDS_OMM_VERS = 2.0
CREATION_DATE  = 
ORIGINATOR     = 

OBJECT_NAME    = SL-14 R/B
OBJECT_ID      = 1986-046B
CENTER_NAME    = EARTH
REF_FRAME      = TEME
TIME_SYSTEM    = UTC
MEAN_ELEMENT_THEORY = SGP/SGP4

EPOCH          = 2025-11-21T13:31:09.329088
MEAN_MOTION    = 14.85454263
ECCENTRICITY   = .0022023
INCLINATION    = 82.4823
RA_OF_ASC_NODE = 182.3125
ARG_OF_PERICENTER = 222.7838
MEAN_ANOMALY   = 137.1665

EPHEMERIS_TYPE = 0
CLASSIFICATION_TYPE = U
NORAD_CAT_ID   = 16792
ELEMENT_SET_NO = 999
REV_AT_EPOCH   = 11035
BSTAR          = .55652E-4
MEAN_MOTION_DOT = .506E-5
MEAN_MOTION_DDOT = 0

CCSDS_OMM_VERS = 2.0
CREATION_DATE  = 
ORIGINATOR     = 

OBJECT_NAME    = SL-14 R/B
OBJECT_ID      = 1986-055B
CENTER_NAME    = EARTH
REF_FRAME      = TEME
TIME_SYSTEM    = UTC
MEAN_ELEMENT_THEORY = SGP/SGP4

EPOCH          = 2025-11-21T05:39:08.052768
MEAN_MOTION    = 14.85499422
ECCENTRICITY   = .0018367
INCLINATION    = 82.5219
RA_OF_ASC_NODE = 228.5761
ARG_OF_PERICENTER = 335.6445
MEAN_ANOMALY   = 139.3929

EPHEMERIS_TYPE = 0
CLASSIFICATION_TYPE = U
NORAD_CAT_ID   = 16882
ELEMENT_SET_NO = 999
REV_AT_EPOCH   = 10326
BSTAR          = .7476E-4
MEAN_MOTION_DOT = .671E-5
MEAN_MOTION_DDOT = 0

CCSDS_OMM_VERS = 2.0
CREATION_DATE  = 
ORIGINATOR     = 

OBJECT_NAME    = AJISAI (EGS)
OBJECT_ID      = 1986-061A
CENTER_NAME    = EARTH
REF_FRAME      = TEME
TIME_SYSTEM    = UTC
MEAN_ELEMENT_THEORY = SGP/SGP4

EPOCH          = 2025-11-21T13:16:07.968000
MEAN_MOTION    = 12.44514082
ECCENTRICITY   = .0011219
INCLINATION    = 50.0101
RA_OF_ASC_NODE = 65.8637
ARG_OF_PERICENTER = 12.6360
MEAN_ANOMALY   = 105.5044

EPHEMERIS_TYPE = 0
CLASSIFICATION_TYPE = U
NORAD_CAT_ID   = 16908
ELEMENT_SET_NO = 999
REV_AT_EPOCH   = 45453
BSTAR          = -.10188E-3
MEAN_MOTION_DOT = -.112E-5
MEAN_MOTION_DDOT = 0

CCSDS_OMM_VERS = 2.0
CREATION_DATE  = 
ORIGINATOR     = 

OBJECT_NAME    = COSMOS 1812
OBJECT_ID      = 1987-003A
CENTER_NAME    = EARTH
REF_FRAME      = TEME
TIME_SYSTEM    = UTC
MEAN_ELEMENT_THEORY = SGP/SGP4

EPOCH          = 2025-11-21T10:04:51.225312
MEAN_MOTION    = 15.70995830
ECCENTRICITY   = .0006112
INCLINATION    = 82.4868
RA_OF_ASC_NODE = 315.0134
ARG_OF_PERICENTER = 119.8647
MEAN_ANOMALY   = 240.3223

EPHEMERIS_TYPE = 0
CLASSIFICATION_TYPE = U
NORAD_CAT_ID   = 17295
ELEMENT_SET_NO = 999
REV_AT_EPOCH   = 12730
BSTAR          = .62935E-3
MEAN_MOTION_DOT = .79378E-3
MEAN_MOTION_DDOT = 0

CCSDS_OMM_VERS = 2.0
CREATION_DATE  = 
ORIGINATOR     = 

OBJECT_NAME    = SL-14 R/B
OBJECT_ID      = 1987-024B
CENTER_NAME    = EARTH
REF_FRAME      = TEME
TIME_SYSTEM    = UTC
MEAN_ELEMENT_THEORY = SGP/SGP4

EPOCH          = 2025-11-21T03:56:59.197920
MEAN_MOTION    = 14.85994073
ECCENTRICITY   = .0016748
INCLINATION    = 82.5292
RA_OF_ASC_NODE = 194.7203
ARG_OF_PERICENTER = 259.6769
MEAN_ANOMALY   = 100.2559

EPHEMERIS_TYPE = 0
CLASSIFICATION_TYPE = U
NORAD_CAT_ID   = 17567
ELEMENT_SET_NO = 999
REV_AT_EPOCH   = 7201
BSTAR          = .5386E-4
MEAN_MOTION_DOT = .495E-5
MEAN_MOTION_DDOT = 0

CCSDS_OMM_VERS = 2.0
CREATION_DATE  = 
ORIGINATOR     = 

OBJECT_NAME    = COSMOS 1833
OBJECT_ID      = 1987-027A
CENTER_NAME    = EARTH
REF_FRAME      = TEME
TIME_SYSTEM    = UTC
MEAN_ELEMENT_THEORY = SGP/SGP4

EPOCH          = 2025-11-21T01:20:08.973024
MEAN_MOTION    = 14.13018295
ECCENTRICITY   = .0021613
INCLINATION    = 70.9132
RA_OF_ASC_NODE = 194.3608
ARG_OF_PERICENTER = 2.2958
MEAN_ANOMALY   = 357.8258

EPHEMERIS_TYPE = 0
CLASSIFICATION_TYPE = U
NORAD_CAT_ID   = 17589
ELEMENT_SET_NO = 999
REV_AT_EPOCH   = 99496
BSTAR          = -.28939E-4
MEAN_MOTION_DOT = -.102E-5
MEAN_MOTION_DDOT = 0

CCSDS_OMM_VERS = 2.0
CREATION_DATE  = 
ORIGINATOR     = 

OBJECT_NAME    = SL-16 R/B
OBJECT_ID      = 1987-027B
CENTER_NAME    = EARTH
REF_FRAME      = TEME
TIME_SYSTEM    = UTC
MEAN_ELEMENT_THEORY = SGP/SGP4

EPOCH          = 2025-11-21T11:39:26.042112
MEAN_MOTION    = 14.17146938
ECCENTRICITY   = .0007255
INCLINATION    = 70.9999
RA_OF_ASC_NODE = 144.5038
ARG_OF_PERICENTER = 281.5348
MEAN_ANOMALY   = 78.4961

EPHEMERIS_TYPE = 0
CLASSIFICATION_TYPE = U
NORAD_CAT_ID   = 17590
ELEMENT_SET_NO = 999
REV_AT_EPOCH   = 1
BSTAR          = .98553E-5
MEAN_MOTION_DOT = -.28E-6
MEAN_MOTION_DDOT = 0

CCSDS_OMM_VERS = 2.0
CREATION_DATE  = 
ORIGINATOR     = 

OBJECT_NAME    = SL-14 R/B
OBJECT_ID      = 1987-038B
CENTER_NAME    = EARTH
REF_FRAME      = TEME
TIME_SYSTEM    = UTC
MEAN_ELEMENT_THEORY = SGP/SGP4

EPOCH          = 2025-11-21T13:48:36.285408
MEAN_MOTION    = 14.85232378
ECCENTRICITY   = .0019908
INCLINATION    = 82.5035
RA_OF_ASC_NODE = 38.6321
ARG_OF_PERICENTER = 157.9755
MEAN_ANOMALY   = 202.2322

EPHEMERIS_TYPE = 0
CLASSIFICATION_TYPE = U
NORAD_CAT_ID   = 17912
ELEMENT_SET_NO = 999
REV_AT_EPOCH   = 6318
BSTAR          = .62764E-4
MEAN_MOTION_DOT = .564E-5
MEAN_MOTION_DDOT = 0

CCSDS_OMM_VERS = 2.0
CREATION_DATE  = 
ORIGINATOR     = 

OBJECT_NAME    = COSMOS 1844
OBJECT_ID      = 1987-041A
CENTER_NAME    = EARTH
REF_FRAME      = TEME
TIME_SYSTEM    = UTC
MEAN_ELEMENT_THEORY = SGP/SGP4

EPOCH          = 2025-11-21T06:38:08.532960
MEAN_MOTION    = 14.14527413
ECCENTRICITY   = .0031149
INCLINATION    = 70.8995
RA_OF_ASC_NODE = 262.8385
ARG_OF_PERICENTER = 190.1197
MEAN_ANOMALY   = 169.9302

EPHEMERIS_TYPE = 0
CLASSIFICATION_TYPE = U
NORAD_CAT_ID   = 17973
ELEMENT_SET_NO = 999
REV_AT_EPOCH   = 98825
BSTAR          = .77335E-4
MEAN_MOTION_DOT = .101E-5
MEAN_MOTION_DDOT = 0

CCSDS_OMM_VERS = 2.0
CREATION_DATE  = 
ORIGINATOR     = 

OBJECT_NAME    = SL-14 R/B
OBJECT_ID      = 1987-055B
CENTER_NAME    = EARTH
REF_FRAME      = TEME
TIME_SYSTEM    = UTC
MEAN_ELEMENT_THEORY = SGP/SGP4

EPOCH          = 2025-11-21T10:28:17.756832
MEAN_MOTION    = 14.85488289
ECCENTRICITY   = .0021031
INCLINATION    = 82.4985
RA_OF_ASC_NODE = 91.0634
ARG_OF_PERICENTER = 15.4716
MEAN_ANOMALY   = 344.7138

EPHEMERIS_TYPE = 0
CLASSIFICATION_TYPE = U
NORAD_CAT_ID   = 18153
ELEMENT_SET_NO = 999
REV_AT_EPOCH   = 5386
BSTAR          = .66858E-4
MEAN_MOTION_DOT = .603E-5
MEAN_MOTION_DDOT = 0

CCSDS_OMM_VERS = 2.0
CREATION_DATE  = 
ORIGINATOR     = 

OBJECT_NAME    = COSMOS 1867
OBJECT_ID      = 1987-060A
CENTER_NAME    = EARTH
REF_FRAME      = TEME
TIME_SYSTEM    = UTC
MEAN_ELEMENT_THEORY = SGP/SGP4

EPOCH          = 2025-11-21T05:23:54.832416
MEAN_MOTION    = 14.31481354
ECCENTRICITY   = .0013679
INCLINATION    = 65.0102
RA_OF_ASC_NODE = 250.4508
ARG_OF_PERICENTER = 268.9248
MEAN_ANOMALY   = 91.0270

EPHEMERIS_TYPE = 0
CLASSIFICATION_TYPE = U
NORAD_CAT_ID   = 18187
ELEMENT_SET_NO = 999
REV_AT_EPOCH   = 441
BSTAR          = .44182E-4
MEAN_MOTION_DOT = .17E-6
MEAN_MOTION_DDOT = 0

CCSDS_OMM_VERS = 2.0
CREATION_DATE  = 
ORIGINATOR     = 

OBJECT_NAME    = COSMOS 1892
OBJECT_ID      = 1987-088A
CENTER_NAME    = EARTH
REF_FRAME      = TEME
TIME_SYSTEM    = UTC
MEAN_ELEMENT_THEORY = SGP/SGP4

EPOCH          = 2025-11-21T06:05:57.448896
MEAN_MOTION    = 16.07621225
ECCENTRICITY   = .0005766
INCLINATION    = 82.4662
RA_OF_ASC_NODE = 67.9651
ARG_OF_PERICENTER = 271.3858
MEAN_ANOMALY   = 88.6763

EPHEMERIS_TYPE = 0
CLASSIFICATION_TYPE = U
NORAD_CAT_ID   = 18421
ELEMENT_SET_NO = 999
REV_AT_EPOCH   = 8787
BSTAR          = .79678E-3
MEAN_MOTION_DOT = .635148E-2
MEAN_MOTION_DDOT = .20303E-3

